{
  "norad_id": 59362,
  "name": "STARLINK-31571",
  "history": [
    {
      "epoch": "2026-03-28T20:49:14.732832",
      "apogee_km": 484.2675888672329,
      "perigee_km": 481.89580278845915,
      "latitude_deg": -43.00126896631963,
      "longitude_deg": -160.5169635200873,
      "semi_major_axis_km": 6861.218695827845,
      "eccentricity": 0.00017284,
      "inclination_deg": 43.0066,
      "raan_deg": 151.736,
      "arg_perigee_deg": 271.2716,
      "mean_anomaly_deg": 88.7938,
      "mean_motion_rev_day": 15.27569113
    }
  ]
}